OBJECT_NAME,OBJECT_ID,EPOCH,MEAN_MOTION,ECCENTRICITY,INCLINATION,RA_OF_ASC_NODE,ARG_OF_PERICENTER,MEAN_ANOMALY,EPHEMERIS_TYPE,CLASSIFICATION_TYPE,NORAD_CAT_ID,ELEMENT_SET_NO,REV_AT_EPOCH,BSTAR,MEAN_MOTION_DOT,MEAN_MOTION_DDOT
BEIDOU-2 M4,2012-018B,2026-05-12T16:21:40.094784,1.86229765,.00109546,55.6900,305.2883,282.0858,77.7844,0,U,38251,999,9528,0,-.4E-6,0
ARIRANG-3 (KOMPSAT-3),2012-025B,2026-05-13T19:36:29.932704,14.62174725,.0004483,98.1157,91.8758,210.2651,149.8292,0,U,38338,999,74632,.57196E-4,.241E-5,0
METOP-B,2012-049A,2026-05-13T20:07:29.429184,14.21422790,.0003525,98.6527,186.0187,90.5610,269.5971,0,U,38771,999,70838,.48177E-4,.62E-6,0
SJ-9A,2012-056A,2026-05-13T21:03:26.335296,14.85397237,.0025964,97.6690,107.0772,13.9500,346.2427,0,U,38860,999,69449,.90522E-4,.731E-5,0
COSMOS 2484 (RODNIK-S 6),2013-001C,2026-05-13T20:32:18.638592,12.42937852,.0027554,82.5017,243.2345,108.8620,251.5451,0,U,39059,999,60429,-.83055E-3,-.105E-5,0
SARAL,2013-009A,2026-05-13T19:46:13.971648,14.32847269,.0002585,98.5561,320.8261,51.0168,309.1246,0,U,39086,999,69068,.37722E-4,.59E-6,0
STRAND-1,2013-009E,2026-05-13T10:53:23.029728,14.37141977,.0008166,98.3916,314.5447,343.0038,17.0874,0,U,39090,999,69207,.73686E-4,.176E-5,0
BRITE-AUSTRIA,2013-009F,2026-05-13T10:50:27.342240,14.36527680,.0009899,98.3988,313.7488,350.9654,9.1353,0,U,39091,999,69206,.49498E-4,.103E-5,0
GAOFEN-1,2013-018A,2026-05-13T20:10:19.481664,14.76537085,.001755,97.9104,206.6035,21.5508,338.6437,0,U,39150,999,70317,.79489E-4,.504E-5,0
NEE-01 PEGASO,2013-018B,2026-05-13T08:40:10.227072,14.93483981,.0011281,98.1178,276.3748,279.5915,80.4029,0,U,39151,999,70550,.14717E-3,.1488E-4,0
PROBA-V,2013-021A,2026-05-13T12:56:05.623008,14.23589391,.0003214,98.3571,113.8602,222.2044,137.8888,0,U,39159,999,67618,.36399E-4,.42E-6,0
ARIRANG-5 (KOMPSAT-5),2013-042A,2026-05-13T20:20:39.729984,15.04489271,.0001987,97.6222,321.0308,237.6210,122.4824,0,U,39227,999,69869,.81541E-4,.108E-4,0
GONETS-M 5,2013-048A,2026-05-13T21:41:25.658016,12.42890572,.0015803,82.4862,4.7583,290.3121,69.6260,0,U,39249,999,57462,-.26255E-3,-.27E-6,0
GONETS-M 7,2013-048C,2026-05-13T18:53:04.589952,12.42913241,.0016625,82.4929,7.7350,291.8590,68.0721,0,U,39251,999,57456,-.62999E-3,-.78E-6,0
FENGYUN 3C,2013-052A,2026-05-13T21:48:03.928320,14.15746674,.0015664,98.4963,109.3617,119.6043,240.6695,0,U,39260,999,65371,.39813E-4,.37E-6,0
CASSIOPE,2013-055A,2026-05-13T19:36:38.191680,15.22612691,.0301033,80.9125,108.3635,177.6150,182.6610,0,U,39265,999,66243,.25387E-3,.22298E-3,-.62835E-6
APRIZESAT 7,2013-066A,2026-05-13T09:40:08.455296,14.91481972,.0035035,97.7689,87.1297,328.9994,30.9157,0,U,39416,999,67604,.91271E-4,.865E-5,0
ZACUBE-1 (TSHEPISOSAT),2013-066B,2026-05-13T21:02:34.446048,15.00914346,.0041751,97.8119,96.0275,8.5716,351.6211,0,U,39417,999,67558,.24041E-3,.3054E-4,0
APRIZESAT 8,2013-066K,2026-05-13T10:24:43.047648,14.87574748,.0047034,97.8203,81.3936,41.7715,318.7077,0,U,39425,999,67450,.82703E-4,.709E-5,0
TRITON-1,2013-066M,2026-05-13T20:28:31.423872,14.81551104,.0090055,97.8266,44.4418,347.3712,12.5244,0,U,39427,999,66900,.22931E-3,.1872E-4,0
