BEIDOU-2 M4             
1 38251U 12018B   26132.68171406 -.00000040  00000+0  00000+0 0  9991
2 38251  55.6900 305.2883 0010954 282.0858  77.7844  1.86229765 95284
ARIRANG-3 (KOMPSAT-3)   
1 38338U 12025B   26133.81701311  .00000241  00000+0  57196-4 0  9990
2 38338  98.1157  91.8758 0004483 210.2651 149.8292 14.62174725746328
METOP-B                 
1 38771U 12049A   26133.83853506  .00000062  00000+0  48177-4 0  9993
2 38771  98.6527 186.0187 0003525  90.5610 269.5971 14.21422790708389
SJ-9A                   
1 38860U 12056A   26133.87738814  .00000731  00000+0  90522-4 0  9992
2 38860  97.6690 107.0772 0025964  13.9500 346.2427 14.85397237694491
COSMOS 2484 (RODNIK-S 6)
1 39059U 13001C   26133.85577128 -.00000105  00000+0 -83055-3 0  9990
2 39059  82.5017 243.2345 0027554 108.8620 251.5451 12.42937852604299
SARAL                   
1 39086U 13009A   26133.82377282  .00000059  00000+0  37722-4 0  9991
2 39086  98.5561 320.8261 0002585  51.0168 309.1246 14.32847269690685
STRAND-1                
1 39090U 13009E   26133.45373877  .00000176  00000+0  73686-4 0  9990
2 39090  98.3916 314.5447 0008166 343.0038  17.0874 14.37141977692074
BRITE-AUSTRIA           
1 39091U 13009F   26133.45170535  .00000103  00000+0  49498-4 0  9991
2 39091  98.3988 313.7488 0009899 350.9654   9.1353 14.36527680692066
GAOFEN-1                
1 39150U 13018A   26133.84050326  .00000504  00000+0  79489-4 0  9993
2 39150  97.9104 206.6035 0017550  21.5508 338.6437 14.76537085703179
NEE-01 PEGASO           
1 39151U 13018B   26133.36122948  .00001488  00000+0  14717-3 0  9995
2 39151  98.1178 276.3748 0011281 279.5915  80.4029 14.93483981705503
PROBA-V                 
1 39159U 13021A   26133.53895397  .00000042  00000+0  36399-4 0  9997
2 39159  98.3571 113.8602 0003214 222.2044 137.8888 14.23589391676185
ARIRANG-5 (KOMPSAT-5)   
1 39227U 13042A   26133.84768206  .00001080  00000+0  81541-4 0  9990
2 39227  97.6222 321.0308 0001987 237.6210 122.4824 15.04489271698698
GONETS-M 5              
1 39249U 13048A   26133.90376919 -.00000027  00000+0 -26255-3 0  9995
2 39249  82.4862   4.7583 0015803 290.3121  69.6260 12.42890572574624
GONETS-M 7              
1 39251U 13048C   26133.78685868 -.00000078  00000+0 -62999-3 0  9991
2 39251  82.4929   7.7350 0016625 291.8590  68.0721 12.42913241574562
FENGYUN 3C              
1 39260U 13052A   26133.90837880  .00000037  00000+0  39813-4 0  9996
2 39260  98.4963 109.3617 0015664 119.6043 240.6695 14.15746674653713
CASSIOPE                
1 39265U 13055A   26133.81710870  .00022298 -62835-6  25387-3 0  9998
2 39265  80.9125 108.3635 0301033 177.6150 182.6610 15.22612691662435
APRIZESAT 7             
1 39416U 13066A   26133.40287564  .00000865  00000+0  91271-4 0  9992
2 39416  97.7689  87.1297 0035035 328.9994  30.9157 14.91481972676049
ZACUBE-1 (TSHEPISOSAT)  
1 39417U 13066B   26133.87678757  .00003054  00000+0  24041-3 0  9995
2 39417  97.8119  96.0275 0041751   8.5716 351.6211 15.00914346675588
APRIZESAT 8             
1 39425U 13066K   26133.43383157  .00000709  00000+0  82703-4 0  9997
2 39425  97.8203  81.3936 0047034  41.7715 318.7077 14.87574748674507
TRITON-1                
1 39427U 13066M   26133.85314148  .00001872  00000+0  22931-3 0  9997
2 39427  97.8266  44.4418 0090055 347.3712  12.5244 14.81551104669005
